STARLINK-35909          
1 66496U 25263M   25335.25002315 -.00033970  00000+0 -21837-3 0  9992
2 66496  42.9993 193.2272 0001769 285.9275 231.4174 15.75095667  3787
STARLINK-35899          
1 66497U 25263N   25335.25002315 -.00066476  00000+0 -43219-3 0  9998
2 66497  42.9992 193.2214 0002362 271.4190 247.8943 15.75080878  3782
STARLINK-35907          
1 66498U 25263P   25335.25002315  .00024636  00000+0  16297-3 0  9995
2 66498  42.9992 193.2172 0001962 267.3661 253.8635 15.75044529  3786
STARLINK-35816          
1 66499U 25263Q   25335.25002315  .00006720  00000+0  46799-4 0  9991
2 66499  42.9994 193.2076 0001617 270.5884 254.4738 15.75050746  3781
STARLINK-35894          
1 66500U 25263R   25335.25002315 -.00077133  00000+0 -50247-3 0  9994
2 66500  42.9993 193.2127 0002470 266.8343 256.3141 15.75087237  3780
STARLINK-35897          
1 66501U 25263S   25335.25002315 -.00002707  00000+0 -14506-4 0  9999
2 66501  42.9991 193.2025 0001600 274.5211 252.4582 15.75054994  3780
STARLINK-35922          
1 66502U 25263T   25335.25002315 -.00047350  00000+0 -30632-3 0  9990
2 66502  42.9991 193.1877 0002615 272.5638 260.1704 15.75074651  3787
STARLINK-35917          
1 66503U 25263U   25335.25002315 -.00055649  00000+0 -36092-3 0  9997
2 66503  42.9991 193.1781 0001646 272.9993 263.5677 15.75078272  3782
STARLINK-35916          
1 66504U 25263V   25335.25002315 -.02522634  00000+0 -29001-1 0  9993
2 66504  42.9991 193.3826 0001370 274.0068 180.3699 15.64724883  3789
STARLINK-34766          
1 66505U 25263W   25335.25002315 -.00035936  00000+0 -23147-3 0  9993
2 66505  42.9990 193.1973 0002067 270.0832 258.8237 15.75072517  3780
STARLINK-34765          
1 66506U 25263X   25335.25002315 -.00015871  00000+0 -10032-3 0  9999
2 66506  42.9991 193.1926 0001915 268.5041 262.3108 15.75055908  3787
STARLINK-34767          
1 66507U 25263Y   25335.25002315  .00033499  00000+0  22064-3 0  9992
2 66507  42.9992 193.1823 0001699 281.9833 252.7175 15.75005239  3781
